LEMUR-2-BALTO           
1 63395U 25052BH  26068.69493058  .00007621  00000+0  63456-3 0  9998
2 63395  97.6978 323.5166 0002279 359.2852   0.8367 14.98934076 53850
STARLINK-36185          
1 67204U 25304N   26068.67338196  .00001964  00000+0  16881-3 0  9994
2 67204  70.0027 174.4434 0002986 267.6224  92.4593 14.99139633 13888
