[{"OBJECT_NAME":"LEMUR-2-BALTO","OBJECT_ID":"2025-052BH","EPOCH":"2026-03-09T16:40:42.002112","MEAN_MOTION":14.98934076,"ECCENTRICITY":0.00022794,"INCLINATION":97.6978,"RA_OF_ASC_NODE":323.5166,"ARG_OF_PERICENTER":359.2852,"MEAN_ANOMALY":0.8367,"EPHEMERIS_TYPE":0,"CLASSIFICATION_TYPE":"U","NORAD_CAT_ID":63395,"ELEMENT_SET_NO":999,"REV_AT_EPOCH":5385,"BSTAR":0.00063455958,"MEAN_MOTION_DOT":7.621e-5,"MEAN_MOTION_DDOT":0},{"OBJECT_NAME":"STARLINK-36185","OBJECT_ID":"2025-304N","EPOCH":"2026-03-09T16:09:40.201344","MEAN_MOTION":14.99139633,"ECCENTRICITY":0.00029868,"INCLINATION":70.0027,"RA_OF_ASC_NODE":174.4434,"ARG_OF_PERICENTER":267.6224,"MEAN_ANOMALY":92.4593,"EPHEMERIS_TYPE":0,"CLASSIFICATION_TYPE":"U","NORAD_CAT_ID":67204,"ELEMENT_SET_NO":999,"REV_AT_EPOCH":1388,"BSTAR":0.00016881136,"MEAN_MOTION_DOT":1.964e-5,"MEAN_MOTION_DDOT":0}]
